KUIPER-00213            
1 67777U 26030P   26062.08605303  .00031061  00000+0  98091-3 0  9996
2 67777  51.8792 251.2989 0015137  44.8627 315.3579 15.32459253  4075
KUIPER-00214            
1 67778U 26030Q   26062.11133954  .00036425  00000+0  10135-2 0  9990
2 67778  51.8842 250.7362 0001033 193.2528 166.8432 15.36479497  4084
KUIPER-00215            
1 67779U 26030R   26062.07342198  .00035058  00000+0  10501-2 0  9996
2 67779  51.8830 251.2258 0009943  41.3541 318.8195 15.34140838  4074
KUIPER-00218            
1 67780U 26030S   26062.13005884  .00035595  00000+0  10427-2 0  9996
2 67780  51.8825 250.8558 0006420  33.0068 327.1317 15.34861889  4083
KUIPER-00220            
1 67781U 26030T   26062.13553839  .00024934  00000+0  74456-3 0  9993
2 67781  51.8798 250.8860 0008063  38.3531 321.8027 15.34434762  4082
KUIPER-00222            
1 67782U 26030U   26062.15463022 -.00002458  00000+0 -65309-4 0  9997
2 67782  51.8797 251.0071 0017402  41.6640 318.5667 15.32308625  4083
KUIPER-00223            
1 67783U 26030V   26062.14156252  .00024344  00000+0  73799-3 0  9998
2 67783  51.8812 250.9288 0012156  41.8232 318.3680 15.33932963  4082
KUIPER-00225            
1 67784U 26030W   26062.12217955  .00026210  00000+0  75463-3 0  9999
2 67784  51.8803 250.8004 0003800  22.7785 337.3369 15.35576949  4080
KUIPER-00226            
1 67785U 26030X   26062.16435208  .00029822  00000+0  97251-3 0  9998
2 67785  51.8809 251.0700 0019328  53.3102 306.9655 15.31382078  4082
KUIPER-00259            
1 67786U 26030Y   26062.13194317  .00032650  00000+0  96058-3 0  9996
2 67786  51.8800 250.8619 0007851  31.9273 328.2187 15.34760048  4086
KUIPER-00260            
1 67787U 26030Z   26062.11535095  .00036891  00000+0  10375-2 0  9995
2 67787  51.8793 250.7559 0001013  55.9785 304.1297 15.36139612  3991
KUIPER-00262            
1 67788U 26030AA  26061.98221118  .00037976  00000+0  10571-2 0  9991
2 67788  51.8810 251.3671 0000532 140.2155 219.8870 15.36446345  4060
KUIPER-00266            
1 67789U 26030AB  26062.10314407  .00029399  00000+0  96807-3 0  9998
2 67789  51.8809 251.4059 0022700  53.0787 307.2272 15.31008348  4074
KUIPER-00268            
1 67790U 26030AC  26062.11981654  .00037974  00000+0  10830-2 0  9994
2 67790  51.8839 250.7925 0002523  30.8271 329.2863 15.35688201  4082
KUIPER-00270            
1 67791U 26030AD  26062.13672559  .00034744  00000+0  10343-2 0  9999
2 67791  51.8798 250.8926 0010045  37.7212 322.4476 15.34340110  4086
KUIPER-00274            
1 67792U 26030AE  26062.15848488  .00035842  00000+0  11571-2 0  9992
2 67792  51.8817 251.0383 0018339  48.7251 311.5309 15.31631085  4083
KUIPER-00275            
1 67793U 26030AF  26062.13421976  .00032667  00000+0  97146-3 0  9995
2 67793  51.8831 250.8846 0008774  35.4031 324.7535 15.34413947  4087
