[{"OBJECT_NAME":"KUIPER-00213","OBJECT_ID":"2026-030P","EPOCH":"2026-03-03T02:03:54.981792","MEAN_MOTION":15.32459253,"ECCENTRICITY":0.0015137,"INCLINATION":51.8792,"RA_OF_ASC_NODE":251.2989,"ARG_OF_PERICENTER":44.8627,"MEAN_ANOMALY":315.3579,"EPHEMERIS_TYPE":0,"CLASSIFICATION_TYPE":"U","NORAD_CAT_ID":67777,"ELEMENT_SET_NO":999,"REV_AT_EPOCH":407,"BSTAR":0.00098091,"MEAN_MOTION_DOT":0.00031061,"MEAN_MOTION_DDOT":0},{"OBJECT_NAME":"KUIPER-00214","OBJECT_ID":"2026-030Q","EPOCH":"2026-03-03T02:40:19.736256","MEAN_MOTION":15.36479497,"ECCENTRICITY":0.0001033,"INCLINATION":51.8842,"RA_OF_ASC_NODE":250.7362,"ARG_OF_PERICENTER":193.2528,"MEAN_ANOMALY":166.8432,"EPHEMERIS_TYPE":0,"CLASSIFICATION_TYPE":"U","NORAD_CAT_ID":67778,"ELEMENT_SET_NO":999,"REV_AT_EPOCH":408,"BSTAR":0.0010135,"MEAN_MOTION_DOT":0.00036425,"MEAN_MOTION_DDOT":0},{"OBJECT_NAME":"KUIPER-00215","OBJECT_ID":"2026-030R","EPOCH":"2026-03-03T01:45:43.659072","MEAN_MOTION":15.34140838,"ECCENTRICITY":0.0009943,"INCLINATION":51.883,"RA_OF_ASC_NODE":251.2258,"ARG_OF_PERICENTER":41.3541,"MEAN_ANOMALY":318.8195,"EPHEMERIS_TYPE":0,"CLASSIFICATION_TYPE":"U","NORAD_CAT_ID":67779,"ELEMENT_SET_NO":999,"REV_AT_EPOCH":407,"BSTAR":0.0010501,"MEAN_MOTION_DOT":0.00035058,"MEAN_MOTION_DDOT":0},{"OBJECT_NAME":"KUIPER-00218","OBJECT_ID":"2026-030S","EPOCH":"2026-03-03T03:07:17.083776","MEAN_MOTION":15.34861889,"ECCENTRICITY":0.000642,"INCLINATION":51.8825,"RA_OF_ASC_NODE":250.8558,"ARG_OF_PERICENTER":33.0068,"MEAN_ANOMALY":327.1317,"EPHEMERIS_TYPE":0,"CLASSIFICATION_TYPE":"U","NORAD_CAT_ID":67780,"ELEMENT_SET_NO":999,"REV_AT_EPOCH":408,"BSTAR":0.0010427,"MEAN_MOTION_DOT":0.00035595,"MEAN_MOTION_DDOT":0},{"OBJECT_NAME":"KUIPER-00220","OBJECT_ID":"2026-030T","EPOCH":"2026-03-03T03:15:10.516896","MEAN_MOTION":15.34434762,"ECCENTRICITY":0.0008063,"INCLINATION":51.8798,"RA_OF_ASC_NODE":250.886,"ARG_OF_PERICENTER":38.3531,"MEAN_ANOMALY":321.8027,"EPHEMERIS_TYPE":0,"CLASSIFICATION_TYPE":"U","NORAD_CAT_ID":67781,"ELEMENT_SET_NO":999,"REV_AT_EPOCH":408,"BSTAR":0.00074456,"MEAN_MOTION_DOT":0.00024934,"MEAN_MOTION_DDOT":0},{"OBJECT_NAME":"KUIPER-00222","OBJECT_ID":"2026-030U","EPOCH":"2026-03-03T03:42:40.051008","MEAN_MOTION":15.32308625,"ECCENTRICITY":0.0017402,"INCLINATION":51.8797,"RA_OF_ASC_NODE":251.0071,"ARG_OF_PERICENTER":41.664,"MEAN_ANOMALY":318.5667,"EPHEMERIS_TYPE":0,"CLASSIFICATION_TYPE":"U","NORAD_CAT_ID":67782,"ELEMENT_SET_NO":999,"REV_AT_EPOCH":408,"BSTAR":-6.5309e-5,"MEAN_MOTION_DOT":-2.458e-5,"MEAN_MOTION_DDOT":0},{"OBJECT_NAME":"KUIPER-00223","OBJECT_ID":"2026-030V","EPOCH":"2026-03-03T03:23:51.001728","MEAN_MOTION":15.33932963,"ECCENTRICITY":0.0012156,"INCLINATION":51.8812,"RA_OF_ASC_NODE":250.9288,"ARG_OF_PERICENTER":41.8232,"MEAN_ANOMALY":318.368,"EPHEMERIS_TYPE":0,"CLASSIFICATION_TYPE":"U","NORAD_CAT_ID":67783,"ELEMENT_SET_NO":999,"REV_AT_EPOCH":408,"BSTAR":0.00073799,"MEAN_MOTION_DOT":0.00024344,"MEAN_MOTION_DDOT":0},{"OBJECT_NAME":"KUIPER-00225","OBJECT_ID":"2026-030W","EPOCH":"2026-03-03T02:55:56.313120","MEAN_MOTION":15.35576949,"ECCENTRICITY":0.00038,"INCLINATION":51.8803,"RA_OF_ASC_NODE":250.8004,"ARG_OF_PERICENTER":22.7785,"MEAN_ANOMALY":337.3369,"EPHEMERIS_TYPE":0,"CLASSIFICATION_TYPE":"U","NORAD_CAT_ID":67784,"ELEMENT_SET_NO":999,"REV_AT_EPOCH":408,"BSTAR":0.00075463,"MEAN_MOTION_DOT":0.0002621,"MEAN_MOTION_DDOT":0},{"OBJECT_NAME":"KUIPER-00226","OBJECT_ID":"2026-030X","EPOCH":"2026-03-03T03:56:40.019712","MEAN_MOTION":15.31382078,"ECCENTRICITY":0.0019328,"INCLINATION":51.8809,"RA_OF_ASC_NODE":251.07,"ARG_OF_PERICENTER":53.3102,"MEAN_ANOMALY":306.9655,"EPHEMERIS_TYPE":0,"CLASSIFICATION_TYPE":"U","NORAD_CAT_ID":67785,"ELEMENT_SET_NO":999,"REV_AT_EPOCH":408,"BSTAR":0.00097251,"MEAN_MOTION_DOT":0.00029822,"MEAN_MOTION_DDOT":0},{"OBJECT_NAME":"KUIPER-00259","OBJECT_ID":"2026-030Y","EPOCH":"2026-03-03T03:09:59.889888","MEAN_MOTION":15.34760048,"ECCENTRICITY":0.0007851,"INCLINATION":51.88,"RA_OF_ASC_NODE":250.8619,"ARG_OF_PERICENTER":31.9273,"MEAN_ANOMALY":328.2187,"EPHEMERIS_TYPE":0,"CLASSIFICATION_TYPE":"U","NORAD_CAT_ID":67786,"ELEMENT_SET_NO":999,"REV_AT_EPOCH":408,"BSTAR":0.00096058,"MEAN_MOTION_DOT":0.0003265,"MEAN_MOTION_DDOT":0},{"OBJECT_NAME":"KUIPER-00260","OBJECT_ID":"2026-030Z","EPOCH":"2026-03-03T02:46:06.322080","MEAN_MOTION":15.36139612,"ECCENTRICITY":0.0001013,"INCLINATION":51.8793,"RA_OF_ASC_NODE":250.7559,"ARG_OF_PERICENTER":55.9785,"MEAN_ANOMALY":304.1297,"EPHEMERIS_TYPE":0,"CLASSIFICATION_TYPE":"U","NORAD_CAT_ID":67787,"ELEMENT_SET_NO":999,"REV_AT_EPOCH":399,"BSTAR":0.0010375,"MEAN_MOTION_DOT":0.00036891,"MEAN_MOTION_DDOT":0},{"OBJECT_NAME":"KUIPER-00262","OBJECT_ID":"2026-030AA","EPOCH":"2026-03-02T23:34:23.045952","MEAN_MOTION":15.36446345,"ECCENTRICITY":5.32e-5,"INCLINATION":51.881,"RA_OF_ASC_NODE":251.3671,"ARG_OF_PERICENTER":140.2155,"MEAN_ANOMALY":219.887,"EPHEMERIS_TYPE":0,"CLASSIFICATION_TYPE":"U","NORAD_CAT_ID":67788,"ELEMENT_SET_NO":999,"REV_AT_EPOCH":406,"BSTAR":0.0010571,"MEAN_MOTION_DOT":0.00037976,"MEAN_MOTION_DDOT":0},{"OBJECT_NAME":"KUIPER-00266","OBJECT_ID":"2026-030AB","EPOCH":"2026-03-03T02:28:31.647648","MEAN_MOTION":15.31008348,"ECCENTRICITY":0.00227,"INCLINATION":51.8809,"RA_OF_ASC_NODE":251.4059,"ARG_OF_PERICENTER":53.0787,"MEAN_ANOMALY":307.2272,"EPHEMERIS_TYPE":0,"CLASSIFICATION_TYPE":"U","NORAD_CAT_ID":67789,"ELEMENT_SET_NO":999,"REV_AT_EPOCH":407,"BSTAR":0.00096807,"MEAN_MOTION_DOT":0.00029399,"MEAN_MOTION_DDOT":0},{"OBJECT_NAME":"KUIPER-00268","OBJECT_ID":"2026-030AC","EPOCH":"2026-03-03T02:52:32.149056","MEAN_MOTION":15.35688201,"ECCENTRICITY":0.0002523,"INCLINATION":51.8839,"RA_OF_ASC_NODE":250.7925,"ARG_OF_PERICENTER":30.8271,"MEAN_ANOMALY":329.2863,"EPHEMERIS_TYPE":0,"CLASSIFICATION_TYPE":"U","NORAD_CAT_ID":67790,"ELEMENT_SET_NO":999,"REV_AT_EPOCH":408,"BSTAR":0.001083,"MEAN_MOTION_DOT":0.00037974,"MEAN_MOTION_DDOT":0},{"OBJECT_NAME":"KUIPER-00270","OBJECT_ID":"2026-030AD","EPOCH":"2026-03-03T03:16:53.090976","MEAN_MOTION":15.3434011,"ECCENTRICITY":0.0010045,"INCLINATION":51.8798,"RA_OF_ASC_NODE":250.8926,"ARG_OF_PERICENTER":37.7212,"MEAN_ANOMALY":322.4476,"EPHEMERIS_TYPE":0,"CLASSIFICATION_TYPE":"U","NORAD_CAT_ID":67791,"ELEMENT_SET_NO":999,"REV_AT_EPOCH":408,"BSTAR":0.0010343,"MEAN_MOTION_DOT":0.00034744,"MEAN_MOTION_DDOT":0},{"OBJECT_NAME":"KUIPER-00274","OBJECT_ID":"2026-030AE","EPOCH":"2026-03-03T03:48:13.093632","MEAN_MOTION":15.31631085,"ECCENTRICITY":0.0018339,"INCLINATION":51.8817,"RA_OF_ASC_NODE":251.0383,"ARG_OF_PERICENTER":48.7251,"MEAN_ANOMALY":311.5309,"EPHEMERIS_TYPE":0,"CLASSIFICATION_TYPE":"U","NORAD_CAT_ID":67792,"ELEMENT_SET_NO":999,"REV_AT_EPOCH":408,"BSTAR":0.0011571,"MEAN_MOTION_DOT":0.00035842,"MEAN_MOTION_DDOT":0},{"OBJECT_NAME":"KUIPER-00275","OBJECT_ID":"2026-030AF","EPOCH":"2026-03-03T03:13:16.587264","MEAN_MOTION":15.34413947,"ECCENTRICITY":0.0008774,"INCLINATION":51.8831,"RA_OF_ASC_NODE":250.8846,"ARG_OF_PERICENTER":35.4031,"MEAN_ANOMALY":324.7535,"EPHEMERIS_TYPE":0,"CLASSIFICATION_TYPE":"U","NORAD_CAT_ID":67793,"ELEMENT_SET_NO":999,"REV_AT_EPOCH":408,"BSTAR":0.00097146,"MEAN_MOTION_DOT":0.00032667,"MEAN_MOTION_DDOT":0}]
